{"type": "FeatureCollection", "features": [ {"type": "Feature", "properties": {"norad_id": 60989, "name": "SENTINEL-2C", "group": "resource", "lat": 69.8058577472755, "lon": -83.12542748145898, "alt_km": 781.2215407358735, "timestamp": "2025-12-26T09:30:53.285869+00:00", "meta": {"OBJECT_NAME": "SENTINEL-2C", "OBJECT_ID": "2024-157A", "EPOCH": "2025-12-25T19:35:01.945536", "MEAN_MOTION": 14.30817849, "ECCENTRICITY": 0.00013862, "INCLINATION": 98.5666, "RA_OF_ASC_NODE": 72.1092, "ARG_OF_PERICENTER": 102.9981, "MEAN_ANOMALY": 257.1356, "EPHEMERIS_TYPE": 0, "CLASSIFICATION_TYPE": "U", "NORAD_CAT_ID": 60989, "ELEMENT_SET_NO": 999, "REV_AT_EPOCH": 6819, "BSTAR": 0.00010095972, "MEAN_MOTION_DOT": 2.21e-06, "MEAN_MOTION_DDOT": 0}, "tle": {"line1": "1 60989U 24157A   25359.81599474  .00000221  00000+0  10096-3 0  9995", "line2": "2 60989  98.5666  72.1092 0001386 102.9981 257.1356 14.30817849 68191"}}, "geometry": {"type": "Point", "coordinates": [-83.12542748145898, 69.8058577472755]}}, {"type": "Feature", "properties": {"norad_id": 61735, "name": "IONOSFERA-M 1", "group": "resource", "lat": -22.785702521220937, "lon": -126.15591075500346, "alt_km": 821.3467930628349, "timestamp": "2025-12-26T09:30:53.285882+00:00", "meta": {"OBJECT_NAME": "IONOSFERA-M 1", "OBJECT_ID": "2024-199A", "EPOCH": "2025-12-26T04:33:33.774336", "MEAN_MOTION": 14.2271696, "ECCENTRICITY": 2.94e-05, "INCLINATION": 98.7396, "RA_OF_ASC_NODE": 229.9344, "ARG_OF_PERICENTER": 4.4693, "MEAN_ANOMALY": 355.6487, "EPHEMERIS_TYPE": 0, "CLASSIFICATION_TYPE": "U", "NORAD_CAT_ID": 61735, "ELEMENT_SET_NO": 999, "REV_AT_EPOCH": 10310, "BSTAR": 4.4443e-05, "MEAN_MOTION_DOT": 5.5e-07, "MEAN_MOTION_DDOT": 0}, "tle": {"line1": "1 61735U 24199A   25360.18997424  .00000055  00000+0  44443-4 0  9999", "line2": "2 61735  98.7396 229.9344 0000294   4.4693 355.6487 14.22716960103101"}}, "geometry": {"type": "Point", "coordinates": [-126.15591075500346, -22.785702521220937]}}, {"type": "Feature", "properties": {"norad_id": 61736, "name": "IONOSFERA-M 2", "group": "resource", "lat": 19.81527382372861, "lon": 53.22879977759048, "alt_km": 815.6806823977959, "timestamp": "2025-12-26T09:30:53.285892+00:00", "meta": {"OBJECT_NAME": "IONOSFERA-M 2", "OBJECT_ID": "2024-199B", "EPOCH": "2025-12-26T03:42:09.251136", "MEAN_MOTION": 14.22719114, "ECCENTRICITY": 0.0001873, "INCLINATION": 98.7394, "RA_OF_ASC_NODE": 229.8113, "ARG_OF_PERICENTER": 93.2609, "MEAN_ANOMALY": 266.8783, "EPHEMERIS_TYPE": 0, "CLASSIFICATION_TYPE": "U", "NORAD_CAT_ID": 61736, "ELEMENT_SET_NO": 999, "REV_AT_EPOCH": 10622, "BSTAR": 4.6056e-05, "MEAN_MOTION_DOT": 5.9e-07, "MEAN_MOTION_DDOT": 0}, "tle": {"line1": "1 61736U 24199B   25360.15427374  .00000059  00000+0  46056-4 0  9995", "line2": "2 61736  98.7394 229.8113 0001873  93.2609 266.8783 14.22719114106222"}}, "geometry": {"type": "Point", "coordinates": [53.22879977759048, 19.81527382372861]}}, {"type": "Feature", "properties": {"norad_id": 63772, "name": "BIOMASS", "group": "resource", "lat": 31.33472550034016, "lon": -179.7484267766067, "alt_km": 666.7373612376778, "timestamp": "2025-12-26T09:30:53.285903+00:00", "meta": {"OBJECT_NAME": "BIOMASS", "OBJECT_ID": "2025-090A", "EPOCH": "2025-12-26T02:49:31.508256", "MEAN_MOTION": 14.67540449, "ECCENTRICITY": 0.0001052, "INCLINATION": 98.0697, "RA_OF_ASC_NODE": 184.9324, "ARG_OF_PERICENTER": 84.6676, "MEAN_ANOMALY": 275.4649, "EPHEMERIS_TYPE": 0, "CLASSIFICATION_TYPE": "U", "NORAD_CAT_ID": 63772, "ELEMENT_SET_NO": 999, "REV_AT_EPOCH": 3530, "BSTAR": 0.00023089, "MEAN_MOTION_DOT": 1.262e-05, "MEAN_MOTION_DDOT": 0}, "tle": {"line1": "1 63772U 25090A   25360.11772579  .00001262  00000+0  23089-3 0  9991", "line2": "2 63772  98.0697 184.9324 0001052  84.6676 275.4649 14.67540449 35304"}}, "geometry": {"type": "Point", "coordinates": [-179.7484267766067, 31.33472550034016]}}, {"type": "Feature", "properties": {"norad_id": 64694, "name": "GOSAT-GW (IBUKI GW)", "group": "resource", "lat": -61.53758005654216, "lon": 100.54121641307205, "alt_km": 676.9854081827862, "timestamp": "2025-12-26T09:30:53.285913+00:00", "meta": {"OBJECT_NAME": "GOSAT-GW (IBUKI GW)", "OBJECT_ID": "2025-141A", "EPOCH": "2025-12-25T22:35:41.590176", "MEAN_MOTION": 14.67561138, "ECCENTRICITY": 0.00014267, "INCLINATION": 98.044, "RA_OF_ASC_NODE": 295.216, "ARG_OF_PERICENTER": 82.1724, "MEAN_ANOMALY": 277.9643, "EPHEMERIS_TYPE": 0, "CLASSIFICATION_TYPE": "U", "NORAD_CAT_ID": 64694, "ELEMENT_SET_NO": 999, "REV_AT_EPOCH": 2643, "BSTAR": 0.00018724095, "MEAN_MOTION_DOT": 1.015e-05, "MEAN_MOTION_DDOT": 0}, "tle": {"line1": "1 64694U 25141A   25359.94145359  .00001015  00000+0  18724-3 0  9997", "line2": "2 64694  98.0440 295.2160 0001426  82.1724 277.9643 14.67561138 26433"}}, "geometry": {"type": "Point", "coordinates": [100.54121641307205, -61.53758005654216]}}, {"type": "Feature", "properties": {"norad_id": 64876, "name": "IONOSFERA-M 3", "group": "resource", "lat": 38.10162950529085, "lon": 148.67630720822703, "alt_km": 817.9203084771943, "timestamp": "2025-12-26T09:30:53.285923+00:00", "meta": {"OBJECT_NAME": "IONOSFERA-M 3", "OBJECT_ID": "2025-155A", "EPOCH": "2025-12-26T03:47:03.408576", "MEAN_MOTION": 14.21444231, "ECCENTRICITY": 0.0001807, "INCLINATION": 98.5801, "RA_OF_ASC_NODE": 321.6452, "ARG_OF_PERICENTER": 38.3682, "MEAN_ANOMALY": 321.7624, "EPHEMERIS_TYPE": 0, "CLASSIFICATION_TYPE": "U", "NORAD_CAT_ID": 64876, "ELEMENT_SET_NO": 999, "REV_AT_EPOCH": 2182, "BSTAR": 6.0795e-05, "MEAN_MOTION_DOT": 9e-07, "MEAN_MOTION_DDOT": 0}, "tle": {"line1": "1 64876U 25155A   25360.15767834  .00000090  00000+0  60795-4 0  9995", "line2": "2 64876  98.5801 321.6452 0001807  38.3682 321.7624 14.21444231 21827"}}, "geometry": {"type": "Point", "coordinates": [148.67630720822703, 38.10162950529085]}}, {"type": "Feature", "properties": {"norad_id": 64877, "name": "IONOSFERA-M 4", "group": "resource", "lat": -37.61701644419032, "lon": -31.52247276611456, "alt_km": 826.7950307848323, "timestamp": "2025-12-26T09:30:53.285933+00:00", "meta": {"OBJECT_NAME": "IONOSFERA-M 4", "OBJECT_ID": "2025-155B", "EPOCH": "2025-12-26T04:37:32.240064", "MEAN_MOTION": 14.2144537, "ECCENTRICITY": 0.000125, "INCLINATION": 98.5802, "RA_OF_ASC_NODE": 321.5986, "ARG_OF_PERICENTER": 51.0399, "MEAN_ANOMALY": 309.089, "EPHEMERIS_TYPE": 0, "CLASSIFICATION_TYPE": "U", "NORAD_CAT_ID": 64877, "ELEMENT_SET_NO": 999, "REV_AT_EPOCH": 2182, "BSTAR": 5.8514e-05, "MEAN_MOTION_DOT": 8.5e-07, "MEAN_MOTION_DDOT": 0}, "tle": {"line1": "1 64877U 25155B   25360.19273426  .00000085  00000+0  58514-4 0  9999", "line2": "2 64877  98.5802 321.5986 0001250  51.0399 309.0890 14.21445370 21828"}}, "geometry": {"type": "Point", "coordinates": [-31.52247276611456, -37.61701644419032]}}, {"type": "Feature", "properties": {"norad_id": 64899, "name": "MICROCARB", "group": "resource", "lat": 78.21056200339926, "lon": 33.154976963685456, "alt_km": 635.6494788647788, "timestamp": "2025-12-26T09:30:53.285943+00:00", "meta": {"OBJECT_NAME": "MICROCARB", "OBJECT_ID": "2025-156A", "EPOCH": "2025-12-26T04:15:11.979072", "MEAN_MOTION": 14.72078134, "ECCENTRICITY": 0.0017662, "INCLINATION": 98.0009, "RA_OF_ASC_NODE": 75.3064, "ARG_OF_PERICENTER": 104.5571, "MEAN_ANOMALY": 255.7596, "EPHEMERIS_TYPE": 0, "CLASSIFICATION_TYPE": "U", "NORAD_CAT_ID": 64899, "ELEMENT_SET_NO": 999, "REV_AT_EPOCH": 2251, "BSTAR": 0.00011937, "MEAN_MOTION_DOT": 7.02e-06, "MEAN_MOTION_DDOT": 0}, "tle": {"line1": "1 64899U 25156A   25360.17722198  .00000702  00000+0  11937-3 0  9990", "line2": "2 64899  98.0009  75.3064 0017662 104.5571 255.7596 14.72078134 22510"}}, "geometry": {"type": "Point", "coordinates": [33.154976963685456, 78.21056200339926]}}, {"type": "Feature", "properties": {"norad_id": 64900, "name": "CO3D 3", "group": "resource", "lat": -34.51114689912331, "lon": 81.71910810663829, "alt_km": 511.68659604960794, "timestamp": "2025-12-26T09:30:53.285953+00:00", "meta": {"OBJECT_NAME": "CO3D 3", "OBJECT_ID": "2025-156B", "EPOCH": "2025-12-26T04:55:42.693600", "MEAN_MOTION": 15.20197634, "ECCENTRICITY": 0.0001336, "INCLINATION": 97.4344, "RA_OF_ASC_NODE": 76.3797, "ARG_OF_PERICENTER": 64.5941, "MEAN_ANOMALY": 295.5433, "EPHEMERIS_TYPE": 0, "CLASSIFICATION_TYPE": "U", "NORAD_CAT_ID": 64900, "ELEMENT_SET_NO": 999, "REV_AT_EPOCH": 2325, "BSTAR": 1.8193e-05, "MEAN_MOTION_DOT": 3.26e-06, "MEAN_MOTION_DDOT": 0}, "tle": {"line1": "1 64900U 25156B   25360.20535525  .00000326  00000+0  18193-4 0  9997", "line2": "2 64900  97.4344  76.3797 0001336  64.5941 295.5433 15.20197634 23254"}}, "geometry": {"type": "Point", "coordinates": [81.71910810663829, -34.51114689912331]}}, {"type": "Feature", "properties": {"norad_id": 64901, "name": "CO3D 4", "group": "resource", "lat": -35.34525404323497, "lon": 81.880918875661, "alt_km": 512.5445958844275, "timestamp": "2025-12-26T09:30:53.285963+00:00", "meta": {"OBJECT_NAME": "CO3D 4", "OBJECT_ID": "2025-156C", "EPOCH": "2025-12-26T03:21:09.043200", "MEAN_MOTION": 15.20191705, "ECCENTRICITY": 0.0001369, "INCLINATION": 97.4337, "RA_OF_ASC_NODE": 76.3146, "ARG_OF_PERICENTER": 149.5803, "MEAN_ANOMALY": 210.5511, "EPHEMERIS_TYPE": 0, "CLASSIFICATION_TYPE": "U", "NORAD_CAT_ID": 64901, "ELEMENT_SET_NO": 999, "REV_AT_EPOCH": 2324, "BSTAR": 0.00022855, "MEAN_MOTION_DOT": 4.882e-05, "MEAN_MOTION_DDOT": 0}, "tle": {"line1": "1 64901U 25156C   25360.13968800  .00004882  00000+0  22855-3 0  9996", "line2": "2 64901  97.4337  76.3146 0001369 149.5803 210.5511 15.20191705 23248"}}, "geometry": {"type": "Point", "coordinates": [81.880918875661, -35.34525404323497]}}]}